NORAD_CAT_ID,OBJECT_NAME,OBJECT_TYPE,EPOCH,MEAN_MOTION,ECCENTRICITY,INCLINATION,RA_OF_ASC_NODE,ARG_OF_PERICENTER,MEAN_ANOMALY,BSTAR,MEAN_MOTION_DOT,MEAN_MOTION_DDOT,TLE_LINE0,TLE_LINE1,TLE_LINE2,SEMIMAJOR_AXIS,PERIOD,APOGEE,PERIGEE,DECAYED
55961.0,STARLINK-5933,PAYLOAD,2023-05-05 05:01:07,15.699254,0.0003375,70.0019,44.8599,256.6953,103.3866,4.5082e-06,3.29e-06,0.0,0 STARLINK-5933,1 55961U 23037AZ  23125.20911337  .00000329  00000-0  45082-5 0  9998,2 55961  70.0019  44.8599 0003375 256.6953 103.3866 15.69925400  8138,6737.247,91.724,361.386,356.839,0.0
55961.0,STARLINK-5933,PAYLOAD,2023-05-05 20:18:38,15.69922136,0.0003443,70.0021,43.0677,262.8938,97.1866,2.7272e-05,3.067e-05,0.0,0 STARLINK-5933,1 55961U 23037AZ  23125.84628048  .00003067  00000-0  27272-4 0  9994,2 55961  70.0021  43.0677 0003443 262.8938  97.1866 15.69922136  7892,6737.257,91.724,361.441,356.802,0.0
55961.0,STARLINK-5933,PAYLOAD,2023-05-05 21:50:21,15.70037264,0.0004021,69.9998,42.8885,257.5584,102.5162,-0.00020812,-0.00025284,0.0,0 STARLINK-5933,1 55961U 23037AZ  23125.90996591 -.00025284  00000-0 -20812-3 0  9991,2 55961  69.9998  42.8885 0004021 257.5584 102.5162 15.70037264  8242,6736.927,91.718,361.501,356.083,0.0
55961.0,STARLINK-5933,PAYLOAD,2023-05-06 03:57:24,15.69925417,0.0003444,69.9997,42.172,258.3778,101.7032,2.4653e-05,2.753e-05,0.0,0 STARLINK-5933,1 55961U 23037AZ  23126.16486164  .00002753  00000-0  24653-4 0  9992,2 55961  69.9997  42.1720 0003444 258.3778 101.7032 15.69925417  8289,6737.247,91.724,361.433,356.792,0.0
55961.0,STARLINK-5933,PAYLOAD,2023-05-06 10:04:24,15.69929339,0.0003524,69.9992,41.4558,262.8323,97.2472,1.4527e-05,1.535e-05,0.0,0 STARLINK-5933,1 55961U 23037AZ  23126.41972687  .00001535  00000-0  14527-4 0  9996,2 55961  69.9992  41.4558 0003524 262.8323  97.2472 15.69929339  7980,6737.236,91.724,361.475,356.727,0.0
55961.0,STARLINK-5933,PAYLOAD,2023-05-06 20:46:39,15.69943386,0.0003818,69.9983,40.2002,261.9696,98.1067,1.8539e-05,2.019e-05,0.0,0 STARLINK-5933,1 55961U 23037AZ  23126.86573201  .00002019  00000-0  18539-4 0  9999,2 55961  69.9983  40.2002 0003818 261.9696  98.1067 15.69943386  8394,6737.196,91.723,361.633,356.489,0.0
55961.0,STARLINK-5933,PAYLOAD,2023-05-07 04:25:26,15.69911741,0.0003754,70.0011,39.3062,266.639,93.4376,-2.057e-05,-2.684e-05,0.0,0 STARLINK-5933,1 55961U 23037AZ  23127.18433420 -.00002684  00000-0 -20570-4 0  9991,2 55961  70.0011  39.3062 0003754 266.6390  93.4376 15.69911741  8443,6737.287,91.725,361.681,356.622,0.0
55961.0,STARLINK-5933,PAYLOAD,2023-05-07 21:14:42,15.6992028,0.0004049,70.0,37.3336,272.3218,87.7515,-4.7567e-06,-7.85e-06,0.0,0 STARLINK-5933,1 55961U 23037AZ  23127.88521638 -.00000785  00000-0 -47567-5 0  9993,2 55961  70.0000  37.3336 0004049 272.3218  87.7515 15.69920280  8555,6737.262,91.724,361.855,356.399,0.0
55961.0,STARLINK-5933,PAYLOAD,2023-05-08 03:21:42,15.69937343,0.0003863,70.0002,36.6178,267.7411,92.3343,2.8097e-05,3.169e-05,0.0,0 STARLINK-5933,1 55961U 23037AZ  23128.14007467  .00003169  00000-0  28097-4 0  9995,2 55961  70.0002  36.6178 0003863 267.7411  92.3343 15.69937343  8592,6737.213,91.723,361.681,356.476,0.0
55961.0,STARLINK-5933,PAYLOAD,2023-05-08 20:10:59,15.6992529,0.0003467,70.0015,34.6497,269.2292,90.8506,1.8555e-06,1e-07,0.0,0 STARLINK-5933,1 55961U 23037AZ  23128.84096436  .00000010  00000-0  18555-5 0  9997,2 55961  70.0015  34.6497 0003467 269.2292  90.8506 15.69925290  8369,6737.248,91.724,361.449,356.777,0.0
55961.0,STARLINK-5933,PAYLOAD,2023-05-09 03:49:44,15.69930302,0.0003538,70.0028,33.7551,267.3506,92.7285,3.4157e-06,1.98e-06,0.0,0 STARLINK-5933,1 55961U 23037AZ  23129.15954494  .00000198  00000-0  34157-5 0  9992,2 55961  70.0028  33.7551 0003538 267.3506  92.7285 15.69930302  8411,6737.233,91.724,361.482,356.715,0.0
55961.0,STARLINK-5933,PAYLOAD,2023-05-10 02:46:01,15.6992919,0.0003499,69.9993,31.0653,266.3369,93.7426,-2.3836e-06,-5e-06,0.0,0 STARLINK-5933,1 55961U 23037AZ  23130.11530018 -.00000500  00000-0 -23836-5 0  9993,2 55961  69.9993  31.0653 0003499 266.3369  93.7426 15.69929190  8562,6737.237,91.724,361.459,356.744,0.0
55961.0,STARLINK-5933,PAYLOAD,2023-05-10 18:03:33,15.69922881,0.0003556,69.9992,29.2742,268.795,91.2838,1.6312e-05,1.749e-05,0.0,0 STARLINK-5933,1 55961U 23037AZ  23130.75246787  .00001749  00000-0  16312-4 0  9994,2 55961  69.9992  29.2742 0003556 268.7950  91.2838 15.69922881  9005,6737.255,91.724,361.515,356.724,0.0
55961.0,STARLINK-5933,PAYLOAD,2023-05-10 19:35:18,15.69924208,0.0003573,69.9993,29.0948,268.4985,91.5801,1.882e-05,2.051e-05,0.0,0 STARLINK-5933,1 55961U 23037AZ  23130.81618349  .00002051  00000-0  18820-4 0  9991,2 55961  69.9993  29.0948 0003573 268.4985  91.5801 15.69924208  8676,6737.251,91.724,361.523,356.709,0.0
55961.0,STARLINK-5933,PAYLOAD,2023-05-11 01:42:18,15.69932346,0.0003474,69.999,28.3773,265.9721,94.1078,2.0193e-05,2.217e-05,0.0,0 STARLINK-5933,1 55961U 23037AZ  23131.07104487  .00002217  00000-0  20193-4 0  9993,2 55961  69.9990  28.3773 0003474 265.9721  94.1078 15.69932346  9051,6737.228,91.724,361.433,356.752,0.0
55961.0,STARLINK-5933,PAYLOAD,2023-05-11 03:14:03,15.69930133,0.0003753,69.9985,28.1978,270.1213,89.9553,1.9967e-05,2.189e-05,0.0,0 STARLINK-5933,1 55961U 23037AZ  23131.13476327  .00002189  00000-0  19967-4 0  9990,2 55961  69.9985  28.1978 0003753 270.1213  89.9553 15.69930133  8729,6737.234,91.724,361.627,356.57,0.0
55961.0,STARLINK-5933,PAYLOAD,2023-05-12 02:10:20,15.69936082,0.0004104,70.0004,25.5131,267.353,92.7196,3.1679e-05,3.6e-05,0.0,0 STARLINK-5933,1 55961U 23037AZ  23132.09051336  .00003600  00000-0  31679-4 0  9998,2 55961  70.0004  25.5131 0004104 267.3530  92.7196 15.69936082  8877,6737.217,91.723,361.847,356.317,0.0
55961.0,STARLINK-5933,PAYLOAD,2023-05-12 18:59:37,15.69924544,0.0003501,70.0012,23.5424,261.2245,98.8554,3.4324e-06,2e-06,0.0,0 STARLINK-5933,1 55961U 23037AZ  23132.79140467  .00000200  00000-0  34324-5 0  9993,2 55961  70.0012  23.5424 0003501 261.2245  98.8554 15.69924544  9321,6737.25,91.724,361.474,356.756,0.0
55961.0,STARLINK-5933,PAYLOAD,2023-05-13 04:10:07,15.69932197,0.000346,70.0003,22.4655,265.9279,94.1521,1.436e-05,1.515e-05,0.0,0 STARLINK-5933,1 55961U 23037AZ  23133.17369897  .00001515  00000-0  14360-4 0  9993,2 55961  70.0003  22.4655 0003460 265.9279  94.1521 15.69932197  9389,6737.228,91.724,361.424,356.762,0.0
55961.0,STARLINK-5933,PAYLOAD,2023-05-13 19:27:39,15.69918243,0.0003027,70.0026,20.676,261.3094,98.7758,-1.8354e-06,-4.33e-06,0.0,0 STARLINK-5933,1 55961U 23037AZ  23133.81087656 -.00000433  00000-0 -18354-5 0  9992,2 55961  70.0026  20.6760 0003027 261.3094  98.7758 15.69918243  9147,6737.268,91.725,361.172,357.094,0.0
55961.0,STARLINK-5933,PAYLOAD,2023-05-14 01:34:39,15.69940087,0.0003352,69.9994,19.9596,261.9491,98.1324,1.6175e-05,1.734e-05,0.0,0 STARLINK-5933,1 55961U 23037AZ  23134.06572936  .00001734  00000-0  16175-4 0  9991,2 55961  69.9994  19.9596 0003352 261.9491  98.1324 15.69940087  9182,6737.205,91.723,361.329,356.812,0.0
55961.0,STARLINK-5933,PAYLOAD,2023-05-14 18:23:56,15.69909705,0.0003384,69.9996,17.9895,262.9567,97.1244,-1.6015e-05,-2.137e-05,0.0,0 STARLINK-5933,1 55961U 23037AZ  23134.76663114 -.00002137  00000-0 -16015-4 0  9990,2 55961  69.9996  17.9895 0003384 262.9567  97.1244 15.69909705  9298,6737.292,91.725,361.437,356.877,0.0
55961.0,STARLINK-5933,PAYLOAD,2023-05-15 00:30:56,15.69909682,0.0002965,70.0022,17.273,256.7135,103.373,-2.8481e-05,-3.633e-05,0.0,0 STARLINK-5933,1 55961U 23037AZ  23135.02149081 -.00003633  00000-0 -28481-4 0  9994,2 55961  70.0022  17.2730 0002965 256.7135 103.3730 15.69909682  9674,6737.292,91.725,361.155,357.16,0.0
55961.0,STARLINK-5933,PAYLOAD,2023-05-15 02:02:41,15.69909614,0.0003439,70.0014,17.0928,269.692,90.3881,-2.5905e-05,-3.324e-05,0.0,0 STARLINK-5933,1 55961U 23037AZ  23135.08520793 -.00003324  00000-0 -25905-4 0  9998,2 55961  70.0014  17.0928 0003439 269.6920  90.3881 15.69909614  9345,6737.293,91.725,361.475,356.841,0.0
55961.0,STARLINK-5933,PAYLOAD,2023-05-15 17:20:12,15.69923884,0.0003643,70.0005,15.3004,270.1953,89.8826,-8.255e-06,-1.205e-05,0.0,0 STARLINK-5933,1 55961U 23037AZ  23135.72237184 -.00001205  00000-0 -82550-5 0  9994,2 55961  70.0005  15.3004 0003643 270.1953  89.8826 15.69923884  9786,6737.252,91.724,361.571,356.662,0.0
55961.0,STARLINK-5933,PAYLOAD,2023-05-16 00:58:58,15.69929842,0.0003572,70.0006,14.4046,270.2351,89.8436,8.5056e-06,8.1e-06,0.0,0 STARLINK-5933,1 55961U 23037AZ  23136.04095106  .00000810  00000-0  85056-5 0  9999,2 55961  70.0006  14.4046 0003572 270.2351  89.8436 15.69929842  9830,6737.235,91.724,361.506,356.693,0.0
55961.0,STARLINK-5933,PAYLOAD,2023-05-16 14:44:44,15.69917328,0.0002868,70.0024,12.7952,271.1497,88.937,4.4436e-05,5.132e-05,0.0,0 STARLINK-5933,1 55961U 23037AZ  23136.61440930  .00005132  00000-0  44436-4 0  9999,2 55961  70.0024  12.7952 0002868 271.1497  88.9370 15.69917328  9580,6737.271,91.725,361.068,357.203,0.0
55961.0,STARLINK-5933,PAYLOAD,2023-05-16 22:23:30,15.69921615,0.00028,70.0028,11.9,259.8323,100.2557,4.5409e-05,5.25e-05,0.0,0 STARLINK-5933,1 55961U 23037AZ  23136.93299139  .00005250  00000-0  45409-4 0  9999,2 55961  70.0028  11.9000 0002800 259.8323 100.2557 15.69921615  9978,6737.258,91.724,361.01,357.237,0.0
55961.0,STARLINK-5933,PAYLOAD,2023-05-17 01:27:01,15.69903198,0.0002954,70.0013,11.5396,271.4308,88.655,1.6599e-06,-1.3e-07,0.0,0 STARLINK-5933,1 55961U 23037AZ  23137.06043502 -.00000013  00000-0  16599-5 0  9997,2 55961  70.0013  11.5396 0002954 271.4308  88.6550 15.69903198  9999,6737.311,91.725,361.166,357.186,0.0
55961.0,STARLINK-5933,PAYLOAD,2023-05-17 18:16:16,15.69927764,0.0003197,70.0018,9.5711,262.2269,97.8564,1.3319e-05,1.389e-05,0.0,0 STARLINK-5933,1 55961U 23037AZ  23137.76130787  .00001389  00000-0  13319-4 0  9998,2 55961  70.0018   9.5711 0003197 262.2269  97.8564 15.69927764 10103,6737.241,91.724,361.26,356.952,0.0
